[{"OBJECT_NAME":"STARLINK-30874","OBJECT_ID":"2023-170X","EPOCH":"2026-03-09T09:03:46.350720","MEAN_MOTION":15.26726036,"ECCENTRICITY":0.00017189,"INCLINATION":43.0017,"RA_OF_ASC_NODE":195.8134,"ARG_OF_PERICENTER":286.1371,"MEAN_ANOMALY":73.9291,"EPHEMERIS_TYPE":0,"CLASSIFICATION_TYPE":"U","NORAD_CAT_ID":58227,"ELEMENT_SET_NO":999,"REV_AT_EPOCH":13025,"BSTAR":-0.00011224497,"MEAN_MOTION_DOT":-3.268e-5,"MEAN_MOTION_DDOT":0},{"OBJECT_NAME":"OBJECT C","OBJECT_ID":"2024-016C","EPOCH":"2026-03-09T22:43:52.910688","MEAN_MOTION":15.23604434,"ECCENTRICITY":0.0010855,"INCLINATION":97.441,"RA_OF_ASC_NODE":150.2614,"ARG_OF_PERICENTER":179.1446,"MEAN_ANOMALY":180.9812,"EPHEMERIS_TYPE":0,"CLASSIFICATION_TYPE":"U","NORAD_CAT_ID":58822,"ELEMENT_SET_NO":999,"REV_AT_EPOCH":11801,"BSTAR":0.0004308258,"MEAN_MOTION_DOT":0.00010264,"MEAN_MOTION_DDOT":0}]
